{
    "links": {
        "self": "http://www.neowsapp.com/rest/v1/neo/54051421?api_key=iIulBulltgU6a56xZRHN4H3l9WmuAYTsLGpBGhQ2"
    },
    "id": "54051421",
    "neo_reference_id": "54051421",
    "name": "(2020 QM6)",
    "designation": "2020 QM6",
    "nasa_jpl_url": "http://ssd.jpl.nasa.gov/sbdb.cgi?sstr=54051421",
    "absolute_magnitude_h": 23.447,
    "estimated_diameter": {
        "kilometers": {
            "estimated_diameter_min": 0.0543444223,
            "estimated_diameter_max": 0.1215178225
        },
        "meters": {
            "estimated_diameter_min": 54.3444223241,
            "estimated_diameter_max": 121.5178225146
        },
        "miles": {
            "estimated_diameter_min": 0.033768048,
            "estimated_diameter_max": 0.0755076509
        },
        "feet": {
            "estimated_diameter_min": 178.2953545377,
            "estimated_diameter_max": 398.6805328188
        }
    },
    "is_potentially_hazardous_asteroid": false,
    "close_approach_data": [
        {
            "close_approach_date": "2020-09-05",
            "close_approach_date_full": "2020-Sep-05 16:20",
            "epoch_date_close_approach": 1599322800000,
            "relative_velocity": {
                "kilometers_per_second": "13.9291465387",
                "kilometers_per_hour": "50144.9275393049",
                "miles_per_hour": "31158.1078924086"
            },
            "miss_distance": {
                "astronomical": "0.1162167957",
                "lunar": "45.2083335273",
                "kilometers": "17385785.094945159",
                "miles": "10803025.9150308342"
            },
            "orbiting_body": "Earth"
        }
    ],
    "orbital_data": {
        "orbit_id": "2",
        "orbit_determination_date": "2020-09-05 06:30:07",
        "first_observation_date": "2020-08-23",
        "last_observation_date": "2020-09-05",
        "data_arc_in_days": 13,
        "observations_used": 14,
        "orbit_uncertainty": "8",
        "minimum_orbit_intersection": ".115196",
        "jupiter_tisserand_invariant": "3.935",
        "epoch_osculation": "2459087.5",
        "eccentricity": ".3801292447002477",
        "semi_major_axis": "1.761608233749371",
        "inclination": "24.25483719258499",
        "ascending_node_longitude": "340.2827447225793",
        "orbital_period": "854.0089540161484",
        "perihelion_distance": "1.091969426396485",
        "perihelion_argument": "28.15510062602778",
        "aphelion_distance": "2.431247041102257",
        "perihelion_time": "2459122.084733955420",
        "mean_anomaly": "345.4211080979887",
        "mean_motion": ".4215412476731395",
        "equinox": "J2000",
        "orbit_class": {
            "orbit_class_type": "AMO",
            "orbit_class_description": "Near-Earth asteroid orbits similar to that of 1221 Amor",
            "orbit_class_range": "1.017 AU < q (perihelion) < 1.3 AU"
        }
    },
    "is_sentry_object": false
}